{
"type": "FeatureCollection",
"name": "hospital_candidates",
"crs": { "type": "name", "properties": { "name": "urn:ogc:def:crs:OGC:1.3:CRS84" } },
"features": [
{ "type": "Feature", "properties": { "h3": "8860a24a95fffff", "pop_total": 0.0, "pm25": null, "lst_c": null, "d_road_m": 48.35698869648558, "d_hosp_m": 6415.9356635076419, "bld_count": 71, "bld_density": 9.4478452207944605e-05, "n_pop": 0.0, "n_pm": 0.0, "n_heat": 0.0, "n_near_road": 0.97771792827566206, "n_far_hosp": 0.89640505467070619, "n_bld_dense": 0.022546111552499262, "score_hospital": 0.23223255102817214, "score_school": 0.39442948206891548 }, "geometry": { "type": "Polygon", "coordinates": [ [ [ 78.267453478813465, 17.431569586879693 ], [ 78.267550343039915, 17.436512764258897 ], [ 78.26329259604654, 17.438907579028754 ], [ 78.258938257306795, 17.43635931235956 ], [ 78.258841543519125, 17.431416354374541 ], [ 78.263099018038147, 17.429021443660986 ], [ 78.267453478813465, 17.431569586879693 ] ] ] } },
{ "type": "Feature", "properties": { "h3": "8860a24abbfffff", "pop_total": 0.0, "pm25": null, "lst_c": null, "d_road_m": 18.878518859135838, "d_hosp_m": 6309.0016820261271, "bld_count": 59, "bld_density": 7.8518650038775475e-05, "n_pop": 0.0, "n_pm": 0.0, "n_heat": 0.0, "n_near_road": 0.99130146278433739, "n_far_hosp": 0.88146473005658932, "n_bld_dense": 0.018737502587674912, "score_hospital": 0.23134985578692213, "score_school": 0.39782536569608434 }, "geometry": { "type": "Polygon", "coordinates": [ [ [ 78.26329259604654, 17.438907579028754 ], [ 78.263389389971806, 17.443850496126572 ], [ 78.259131694716572, 17.446244927142743 ], [ 78.254777478059438, 17.443696537068295 ], [ 78.254680834569214, 17.438753839386489 ], [ 78.258938257306795, 17.43635931235956 ], [ 78.26329259604654, 17.438907579028754 ] ] ] } },
{ "type": "Feature", "properties": { "h3": "8860a24f6dfffff", "pop_total": 0.0, "pm25": null, "lst_c": null, "d_road_m": 399.91561327958556, "d_hosp_m": 7116.8480247772704, "bld_count": 0, "bld_density": 0.0, "n_pop": 0.0, "n_pm": 0.0, "n_heat": 0.0, "n_near_road": 0.81572143608336922, "n_far_hosp": 0.99433330964011124, "n_bld_dense": 0.0, "score_hospital": 0.2307221400543536, "score_school": 0.3539303590208423 }, "geometry": { "type": "Polygon", "coordinates": [ [ [ 78.254680834569214, 17.438753839386489 ], [ 78.254777478059438, 17.443696537068295 ], [ 78.250520107148702, 17.44609068029445 ], [ 78.246166365332911, 17.443542221905531 ], [ 78.24606987225458, 17.438599743724552 ], [ 78.250326970585874, 17.436205504428109 ], [ 78.254680834569214, 17.438753839386489 ] ] ] } },
{ "type": "Feature", "properties": { "h3": "8860a24a91fffff", "pop_total": 0.0, "pm25": null, "lst_c": null, "d_road_m": 401.83473523033587, "d_hosp_m": 6947.6516531837187, "bld_count": 3, "bld_density": 3.9921139938902965e-06, "n_pop": 0.0, "n_pm": 0.0, "n_heat": 0.0, "n_near_road": 0.81483711408876747, "n_far_hosp": 0.97069396992680046, "n_bld_dense": 0.00095266852211382238, "score_hospital": 0.22708780689789682, "score_school": 0.35370927852219186 }, "geometry": { "type": "Polygon", "coordinates": [ [ [ 78.263002233954708, 17.42407822553217 ], [ 78.263099018038147, 17.429021443660986 ], [ 78.258841543519125, 17.431416354374541 ], [ 78.254487557415302, 17.428868142891968 ], [ 78.254390923751288, 17.423925144220391 ], [ 78.258648125777427, 17.421530137570588 ], [ 78.263002233954708, 17.42407822553217 ] ] ] } },
{ "type": "Feature", "properties": { "h3": "8860a24a9dfffff", "pop_total": 0.0, "pm25": null, "lst_c": null, "d_road_m": 41.472404745425784, "d_hosp_m": 6031.9829917330735, "bld_count": 23, "bld_density": 3.0602428192988766e-05, "n_pop": 0.0, "n_pm": 0.0, "n_heat": 0.0, "n_near_road": 0.98089031083802303, "n_far_hosp": 0.84276095133428319, "n_bld_dense": 0.0073028901690501509, "score_hospital": 0.2245031737839448, "score_school": 0.39522257770950575 }, "geometry": { "type": "Polygon", "coordinates": [ [ [ 78.271614342973578, 17.424230950969189 ], [ 78.271711277499563, 17.429174388470376 ], [ 78.267453478813465, 17.431569586879693 ], [ 78.263099018038147, 17.429021443660986 ], [ 78.263002233954708, 17.42407822553217 ], [ 78.267259760209768, 17.421682931246146 ], [ 78.271614342973578, 17.424230950969189 ] ] ] } },
{ "type": "Feature", "properties": { "h3": "8860a24ab3fffff", "pop_total": 0.0, "pm25": null, "lst_c": null, "d_road_m": 301.60169271441583, "d_hosp_m": 6336.7629205173453, "bld_count": 27, "bld_density": 3.5936103886303595e-05, "n_pop": 0.0, "n_pm": 0.0, "n_heat": 0.0, "n_near_road": 0.86102400911543708, "n_far_hosp": 0.88534340275728185, "n_bld_dense": 0.008575705761981911, "score_hospital": 0.21890391132513598, "score_school": 0.36525600227885924 }, "geometry": { "type": "Polygon", "coordinates": [ [ [ 78.259131694716572, 17.446244927142743 ], [ 78.259228418339006, 17.451187583799857 ], [ 78.254970774867303, 17.453581630948275 ], [ 78.25061668033986, 17.451033117513752 ], [ 78.250520107148702, 17.44609068029445 ], [ 78.254777478059438, 17.443696537068295 ], [ 78.259131694716572, 17.446244927142743 ] ] ] } },
{ "type": "Feature", "properties": { "h3": "8860a24ad7fffff", "pop_total": 0.0, "pm25": null, "lst_c": null, "d_road_m": 37.883008728313207, "d_hosp_m": 5669.3083998614138, "bld_count": 3, "bld_density": 3.9911951075284657e-06, "n_pop": 0.0, "n_pm": 0.0, "n_heat": 0.0, "n_near_road": 0.98254428694101514, "n_far_hosp": 0.79208972356566576, "n_bld_dense": 0.00095244924127323117, "score_hospital": 0.21706788722895137, "score_school": 0.39563607173525378 }, "geometry": { "type": "Polygon", "coordinates": [ [ [ 78.275775188483109, 17.416891671570983 ], [ 78.275872193306995, 17.421835369034639 ], [ 78.271614342973578, 17.424230950969189 ], [ 78.267259760209768, 17.421682931246146 ], [ 78.267162905832194, 17.416739453132976 ], [ 78.27142048377786, 17.41434377538879 ], [ 78.275775188483109, 17.416891671570983 ] ] ] } },
{ "type": "Feature", "properties": { "h3": "8860a24a83fffff", "pop_total": 0.0, "pm25": null, "lst_c": null, "d_road_m": 27.015504286515075, "d_hosp_m": 5599.0832030318643, "bld_count": 230, "bld_density": 0.00030601917070869434, "n_pop": 0.0, "n_pm": 0.0, "n_heat": 0.0, "n_near_road": 0.98755197975624098, "n_far_hosp": 0.78227818169480512, "n_bld_dense": 0.073027681960917662, "score_hospital": 0.21609692522984486, "score_school": 0.39688799493906024 }, "geometry": { "type": "Polygon", "coordinates": [ [ [ 78.276066212818904, 17.431722463328015 ], [ 78.276163227507269, 17.436665860016561 ], [ 78.271905156408678, 17.439060962541699 ], [ 78.267550343039915, 17.436512764258897 ], [ 78.267453478813465, 17.431569586879693 ], [ 78.271711277499563, 17.429174388470376 ], [ 78.276066212818904, 17.431722463328015 ] ] ] } },
{ "type": "Feature", "properties": { "h3": "8860a24ab9fffff", "pop_total": 0.0, "pm25": null, "lst_c": null, "d_road_m": 25.538218977885467, "d_hosp_m": 5534.7393923975824, "bld_count": 279, "bld_density": 0.00037125421277607454, "n_pop": 0.0, "n_pm": 0.0, "n_heat": 0.0, "n_near_road": 0.9882327055903718, "n_far_hosp": 0.7732883600827517, "n_bld_dense": 0.088595216157455414, "score_hospital": 0.21481652457144995, "score_school": 0.39705817639759294 }, "geometry": { "type": "Polygon", "coordinates": [ [ [ 78.271905156408678, 17.439060962541699 ], [ 78.272002100792108, 17.444004098970687 ], [ 78.267744081342897, 17.446398817789298 ], [ 78.263389389971806, 17.443850496126572 ], [ 78.26329259604654, 17.438907579028754 ], [ 78.267550343039915, 17.436512764258897 ], [ 78.271905156408678, 17.439060962541699 ] ] ] } },
{ "type": "Feature", "properties": { "h3": "8860a24ad1fffff", "pop_total": 0.0, "pm25": null, "lst_c": null, "d_road_m": 93.765112963875879, "d_hosp_m": 5441.4665331011256, "bld_count": 0, "bld_density": 0.0, "n_pop": 0.0, "n_pm": 0.0, "n_heat": 0.0, "n_near_road": 0.95679408703276236, "n_far_hosp": 0.76025670469809925, "n_bld_dense": 0.0, "score_hospital": 0.20971791440799112, "score_school": 0.38919852175819059 }, "geometry": { "type": "Polygon", "coordinates": [ [ [ 78.27993601529829, 17.40955174895894 ], [ 78.280033090418399, 17.414495706225519 ], [ 78.275775188483109, 17.416891671570983 ], [ 78.27142048377786, 17.41434377538879 ], [ 78.271323559107799, 17.409400037450776 ], [ 78.275581188698666, 17.407003976362795 ], [ 78.27993601529829, 17.40955174895894 ] ] ] } },
{ "type": "Feature", "properties": { "h3": "8860a24a8bfffff", "pop_total": 0.0, "pm25": null, "lst_c": null, "d_road_m": 0.67304677454593242, "d_hosp_m": 5116.2412304869931, "bld_count": 0, "bld_density": 0.0, "n_pop": 0.0, "n_pm": 0.0, "n_heat": 0.0, "n_near_road": 0.99969045514629595, "n_far_hosp": 0.71481771957418438, "n_bld_dense": 0.0, "score_hospital": 0.20719170345075727, "score_school": 0.39992261378657401 }, "geometry": { "type": "Polygon", "coordinates": [ [ [ 78.280227250529833, 17.424383320421985 ], [ 78.280324335521485, 17.429326977210607 ], [ 78.276066212818904, 17.431722463328015 ], [ 78.271711277499563, 17.429174388470376 ], [ 78.271614342973578, 17.424230950969189 ], [ 78.275872193306995, 17.421835369034639 ], [ 78.280227250529833, 17.424383320421985 ] ] ] } },
{ "type": "Feature", "properties": { "h3": "8860a24a87fffff", "pop_total": 0.0, "pm25": null, "lst_c": null, "d_road_m": 2.1844048257083952, "d_hosp_m": 4810.3497583081726, "bld_count": 396, "bld_density": 0.00052687641020267176, "n_pop": 0.0, "n_pm": 0.0, "n_heat": 0.0, "n_near_road": 0.99899402875930221, "n_far_hosp": 0.6720799684147768, "n_bld_dense": 0.12573252462545001, "score_hospital": 0.20071139813814676, "score_school": 0.39974850718982557 }, "geometry": { "type": "Polygon", "coordinates": [ [ [ 78.280518515377508, 17.439213989815705 ], [ 78.280615610242208, 17.444157345490975 ], [ 78.27635726674967, 17.446552352124421 ], [ 78.272002100792108, 17.444004098970687 ], [ 78.271905156408678, 17.439060962541699 ], [ 78.276163227507269, 17.436665860016561 ], [ 78.280518515377508, 17.439213989815705 ] ] ] } },
{ "type": "Feature", "properties": { "h3": "8860a24ad9fffff", "pop_total": 0.0, "pm25": null, "lst_c": null, "d_road_m": 265.95908352883066, "d_hosp_m": 5365.6956772782287, "bld_count": 0, "bld_density": 0.0, "n_pop": 0.0, "n_pm": 0.0, "n_heat": 0.0, "n_near_road": 0.87744794884239652, "n_far_hosp": 0.74967034883067818, "n_bld_dense": 0.0, "score_hospital": 0.20019534720884138, "score_school": 0.3693619872105991 }, "geometry": { "type": "Polygon", "coordinates": [ [ [ 78.284096823375378, 17.402211183407132 ], [ 78.284193968790063, 17.407155400317027 ], [ 78.27993601529829, 17.40955174895894 ], [ 78.275581188698666, 17.407003976362795 ], [ 78.275484193737782, 17.402059978759517 ], [ 78.279741874928462, 17.399663534442205 ], [ 78.284096823375378, 17.402211183407132 ] ] ] } },
{ "type": "Feature", "properties": { "h3": "8860a24ab1fffff", "pop_total": 0.0, "pm25": null, "lst_c": null, "d_road_m": 351.80234204324375, "d_hosp_m": 5495.6915200421663, "bld_count": 18, "bld_density": 2.395444446708099e-05, "n_pop": 0.0, "n_pm": 0.0, "n_heat": 0.0, "n_near_road": 0.83789179579912509, "n_far_hosp": 0.76783277075185818, "n_bld_dense": 0.0057164312550787317, "score_hospital": 0.19896409519269123, "score_school": 0.35947294894978127 }, "geometry": { "type": "Polygon", "coordinates": [ [ [ 78.267744081342897, 17.446398817789298 ], [ 78.267840955419743, 17.451341693799375 ], [ 78.263582987665345, 17.45373602879733 ], [ 78.259228418339006, 17.451187583799857 ], [ 78.259131694716572, 17.446244927142743 ], [ 78.263389389971806, 17.443850496126572 ], [ 78.267744081342897, 17.446398817789298 ] ] ] } },
{ "type": "Feature", "properties": { "h3": "8860a24a81fffff", "pop_total": 0.0, "pm25": null, "lst_c": null, "d_road_m": 26.595307689446127, "d_hosp_m": 4694.1790525795204, "bld_count": 494, "bld_density": 0.0006571948177841356, "n_pop": 0.0, "n_pm": 0.0, "n_heat": 0.0, "n_near_road": 0.98774560428995006, "n_far_hosp": 0.65584913112441423, "n_bld_dense": 0.15683139728912265, "score_hospital": 0.19715193009765714, "score_school": 0.39693640107248751 }, "geometry": { "type": "Polygon", "coordinates": [ [ [ 78.284679745257293, 17.431874983609983 ], [ 78.284776910430665, 17.436818599522944 ], [ 78.280518515377508, 17.439213989815705 ], [ 78.276163227507269, 17.436665860016561 ], [ 78.276066212818904, 17.431722463328015 ], [ 78.280324335521485, 17.429326977210607 ], [ 78.284679745257293, 17.431874983609983 ] ] ] } }
]
}
