{
"type": "FeatureCollection",
"name": "school_candidates",
"crs": { "type": "name", "properties": { "name": "urn:ogc:def:crs:OGC:1.3:CRS84" } },
"features": [
{ "type": "Feature", "properties": { "h3": "8860b52c2dfffff", "pop_total": 0.0, "pm25": null, "lst_c": null, "d_road_m": 0.0012843089376898529, "d_hosp_m": 993.60788577340577, "bld_count": 90, "bld_density": 0.0001192109566551538, "n_pop": 0.0, "n_pm": 0.0, "n_heat": 0.0, "n_near_road": 1.0, "n_far_hosp": 0.13882232894477242, "n_bld_dense": 0.02844821717772851, "score_hospital": 0.12082334934171587, "score_school": 0.4 }, "geometry": { "type": "Polygon", "coordinates": [ [ [ 78.600079705114553, 17.459478484894763 ], [ 78.600182394336983, 17.46442958938114 ], [ 78.595911946172038, 17.466834777769865 ], [ 78.591539078877688, 17.464288955422564 ], [ 78.591436540995844, 17.459338066973288 ], [ 78.595706719073334, 17.456932784830368 ], [ 78.600079705114553, 17.459478484894763 ] ] ] } },
{ "type": "Feature", "properties": { "h3": "8860b52c45fffff", "pop_total": 0.0, "pm25": null, "lst_c": null, "d_road_m": 0.051990114384119823, "d_hosp_m": 475.60388952805187, "bld_count": 714, "bld_density": 0.00094545306483731799, "n_pop": 0.0, "n_pm": 0.0, "n_heat": 0.0, "n_near_road": 0.9999766350132191, "n_far_hosp": 0.066449190414873002, "n_bld_dense": 0.2256206549675252, "score_hospital": 0.10996504206355287, "score_school": 0.3999941587533048 }, "geometry": { "type": "Polygon", "coordinates": [ [ [ 78.608106686968853, 17.429908497391992 ], [ 78.608209506616092, 17.434860423807919 ], [ 78.60393918377784, 17.437266851580599 ], [ 78.599566311272596, 17.434721446478985 ], [ 78.599463642957033, 17.429769736095423 ], [ 78.603733695820594, 17.427363214777284 ], [ 78.608106686968853, 17.429908497391992 ] ] ] } },
{ "type": "Feature", "properties": { "h3": "8860b194d7fffff", "pop_total": 0.0, "pm25": null, "lst_c": null, "d_road_m": 0.11049416574174727, "d_hosp_m": 293.46439385549058, "bld_count": 778, "bld_density": 0.0010339199714568586, "n_pop": 0.0, "n_pm": 0.0, "n_heat": 0.0, "n_near_road": 0.99994967663291989, "n_far_hosp": 0.041001496868832088, "n_bld_dense": 0.24673218567887376, "score_hospital": 0.1061451921936168, "score_school": 0.39998741915823 }, "geometry": { "type": "Polygon", "coordinates": [ [ [ 78.398512936184972, 17.522846083751638 ], [ 78.398612120289954, 17.527790720380882 ], [ 78.394348200271139, 17.530186979928342 ], [ 78.389985367841007, 17.52763869833759 ], [ 78.389886334613777, 17.522694279577646 ], [ 78.394149982944569, 17.520297924535473 ], [ 78.398512936184972, 17.522846083751638 ] ] ] } },
{ "type": "Feature", "properties": { "h3": "8860b52dd5fffff", "pop_total": 0.0, "pm25": null, "lst_c": null, "d_road_m": 0.13125986895661743, "d_hosp_m": 170.34768935744827, "bld_count": 1793, "bld_density": 0.0023766227638086636, "n_pop": 0.0, "n_pm": 0.0, "n_heat": 0.0, "n_near_road": 0.99994010789859367, "n_far_hosp": 0.023800196541872636, "n_bld_dense": 0.56715156417997969, "score_hospital": 0.10356404027114026, "score_school": 0.39998502697464844 }, "geometry": { "type": "Polygon", "coordinates": [ [ [ 78.557177578456603, 17.473622557861503 ], [ 78.557279521578607, 17.47857227759869 ], [ 78.553010445434126, 17.480975547774314 ], [ 78.548639696604681, 17.478429192337252 ], [ 78.54853790472626, 17.473479689027361 ], [ 78.552806710439285, 17.471076324723391 ], [ 78.557177578456603, 17.473622557861503 ] ] ] } },
{ "type": "Feature", "properties": { "h3": "8860a24b65fffff", "pop_total": 0.0, "pm25": null, "lst_c": null, "d_road_m": 0.13809869595990887, "d_hosp_m": 356.49908257877087, "bld_count": 1147, "bld_density": 0.0015239985703205347, "n_pop": 0.0, "n_pm": 0.0, "n_heat": 0.0, "n_near_road": 0.99993695660060877, "n_far_hosp": 0.049808413981877374, "n_bld_dense": 0.36368336873968016, "score_hospital": 0.10746495775734249, "score_school": 0.39998423915015219 }, "geometry": { "type": "Polygon", "coordinates": [ [ [ 78.402379908764431, 17.500669237494598 ], [ 78.402479153166936, 17.505614440566646 ], [ 78.398215404055378, 17.508011563393129 ], [ 78.393852682166667, 17.505463578497672 ], [ 78.393753588629849, 17.5005185933144 ], [ 78.398017066121724, 17.498121375134101 ], [ 78.402379908764431, 17.500669237494598 ] ] ] } },
{ "type": "Feature", "properties": { "h3": "8860b5255dfffff", "pop_total": 0.0, "pm25": null, "lst_c": null, "d_road_m": 0.15579569427207535, "d_hosp_m": 1421.1957180264824, "bld_count": 795, "bld_density": 0.00105221611722671, "n_pop": 0.0, "n_pm": 0.0, "n_heat": 0.0, "n_near_road": 0.99992880191047051, "n_far_hosp": 0.19856293643362607, "n_bld_dense": 0.25109833408486099, "score_hospital": 0.12977732065609096, "score_school": 0.39998220047761762 }, "geometry": { "type": "Polygon", "coordinates": [ [ [ 78.588362021796996, 17.310764699287418 ], [ 78.588464455365283, 17.315718591259898 ], [ 78.584196542230131, 17.318128238227086 ], [ 78.579826465440405, 17.315584086284698 ], [ 78.579724183033164, 17.310630410840655 ], [ 78.583991826260203, 17.308220670806747 ], [ 78.588362021796996, 17.310764699287418 ] ] ] } },
{ "type": "Feature", "properties": { "h3": "8860a2589dfffff", "pop_total": 0.0, "pm25": null, "lst_c": null, "d_road_m": 0.15779779803661181, "d_hosp_m": 2644.3245761601643, "bld_count": 17, "bld_density": 2.2582805630959061e-05, "n_pop": 0.0, "n_pm": 0.0, "n_heat": 0.0, "n_near_road": 0.99992787935086258, "n_far_hosp": 0.369452881166211, "n_bld_dense": 0.0053891066483961426, "score_hospital": 0.15541072011001791, "score_school": 0.39998196983771561 }, "geometry": { "type": "Polygon", "coordinates": [ [ [ 78.361055434292808, 17.37387678321863 ], [ 78.361153914794187, 17.378823569248855 ], [ 78.356893494938305, 17.381223461812155 ], [ 78.352534866278845, 17.378676663330992 ], [ 78.352436536407083, 17.373730095922841 ], [ 78.356696684570863, 17.371330108370127 ], [ 78.361055434292808, 17.37387678321863 ] ] ] } },
{ "type": "Feature", "properties": { "h3": "8860b196e3fffff", "pop_total": 0.0, "pm25": null, "lst_c": null, "d_road_m": 0.17455196177428331, "d_hosp_m": 740.57538709479388, "bld_count": 984, "bld_density": 0.0013064784348281329, "n_pop": 0.0, "n_pm": 0.0, "n_heat": 0.0, "n_near_road": 0.99992015911427801, "n_far_hosp": 0.10346979071694012, "n_bld_dense": 0.31177488458148972, "score_hospital": 0.11551248451896882, "score_school": 0.3999800397785695 }, "geometry": { "type": "Polygon", "coordinates": [ [ [ 78.449688761478427, 17.494071571846938 ], [ 78.449788830958411, 17.499018124088654 ], [ 78.445523424100003, 17.501417072647378 ], [ 78.441158219028466, 17.498869563948709 ], [ 78.441058300531949, 17.493923229146098 ], [ 78.445323436129115, 17.491524185599303 ], [ 78.449688761478427, 17.494071571846938 ] ] ] } },
{ "type": "Feature", "properties": { "h3": "8860b196e9fffff", "pop_total": 0.0, "pm25": null, "lst_c": null, "d_road_m": 0.24425967079977415, "d_hosp_m": 815.8360245105963, "bld_count": 1255, "bld_density": 0.0016659076020208892, "n_pop": 0.0, "n_pm": 0.0, "n_heat": 0.0, "n_near_road": 0.99988803814340355, "n_far_hosp": 0.11398486121257871, "n_bld_dense": 0.39754820018274123, "score_hospital": 0.11708653299622716, "score_school": 0.39997200953585088 }, "geometry": { "type": "Polygon", "coordinates": [ [ [ 78.462485502258559, 17.486872904434666 ], [ 78.462585793152812, 17.491819934855826 ], [ 78.458320015526738, 17.494219555170716 ], [ 78.453954218166345, 17.491672239921986 ], [ 78.453854078281879, 17.486725426832038 ], [ 78.458119584753675, 17.484325711655867 ], [ 78.462485502258559, 17.486872904434666 ] ] ] } },
{ "type": "Feature", "properties": { "h3": "8860a24b15fffff", "pop_total": 0.0, "pm25": null, "lst_c": null, "d_road_m": 0.26287796201116997, "d_hosp_m": 786.41114034191924, "bld_count": 825, "bld_density": 0.0010967388738435814, "n_pop": 0.0, "n_pm": 0.0, "n_heat": 0.0, "n_near_road": 0.99987945892601005, "n_far_hosp": 0.10987375158098964, "n_bld_dense": 0.26172313808884046, "score_hospital": 0.11646900862974946, "score_school": 0.39996986473150253 }, "geometry": { "type": "Polygon", "coordinates": [ [ [ 78.358960809706176, 17.485079483228358 ], [ 78.359059289989546, 17.490023900028675 ], [ 78.354797373673108, 17.492420060449298 ], [ 78.35043724898722, 17.489871899644179 ], [ 78.350338919439281, 17.484927701200618 ], [ 78.354600563847498, 17.482531445201761 ], [ 78.358960809706176, 17.485079483228358 ] ] ] } },
{ "type": "Feature", "properties": { "h3": "8860a25861fffff", "pop_total": 0.0, "pm25": null, "lst_c": null, "d_road_m": 0.30297601342278829, "d_hosp_m": 172.51863612950814, "bld_count": 1343, "bld_density": 0.001781784127748047, "n_pop": 0.0, "n_pm": 0.0, "n_heat": 0.0, "n_near_road": 0.99986098194032913, "n_far_hosp": 0.024103511251052808, "n_bld_dense": 0.42520069675000466, "score_hospital": 0.10360162488169085, "score_school": 0.39996524548508228 }, "geometry": { "type": "Polygon", "coordinates": [ [ [ 78.456216170421669, 17.390314064149397 ], [ 78.456316319546659, 17.395262949656875 ], [ 78.45205214108303, 17.397665528519962 ], [ 78.44768808452649, 17.395119316279132 ], [ 78.447588086298069, 17.390170648412102 ], [ 78.451851993735232, 17.387767975141738 ], [ 78.456216170421669, 17.390314064149397 ] ] ] } },
{ "type": "Feature", "properties": { "h3": "8860b524a1fffff", "pop_total": 0.0, "pm25": null, "lst_c": null, "d_road_m": 0.31959482483941087, "d_hosp_m": 514.23490317101766, "bld_count": 249, "bld_density": 0.00032997343084917275, "n_pop": 0.0, "n_pm": 0.0, "n_heat": 0.0, "n_near_road": 0.99985332407343119, "n_far_hosp": 0.071846538161604551, "n_bld_dense": 0.078744069228737432, "score_hospital": 0.11076231313158381, "score_school": 0.39996333101835779 }, "geometry": { "type": "Polygon", "coordinates": [ [ [ 78.497552784491177, 17.301909232530189 ], [ 78.497653626863737, 17.306860994937459 ], [ 78.493389174449419, 17.309267863529765 ], [ 78.489024150231856, 17.306723063369166 ], [ 78.488923458775446, 17.301771518415588 ], [ 78.493187640626047, 17.299364556165195 ], [ 78.497552784491177, 17.301909232530189 ] ] ] } },
{ "type": "Feature", "properties": { "h3": "8860a2586bfffff", "pop_total": 0.0, "pm25": null, "lst_c": null, "d_road_m": 0.32113954712271192, "d_hosp_m": 601.15633897482098, "bld_count": 725, "bld_density": 0.00096188769989917727, "n_pop": 0.0, "n_pm": 0.0, "n_heat": 0.0, "n_near_road": 0.9998526122729694, "n_far_hosp": 0.083990801835714848, "n_bld_dense": 0.22954257691660362, "score_hospital": 0.11258388150265418, "score_school": 0.39996315306824237 }, "geometry": { "type": "Polygon", "coordinates": [ [ [ 78.451751925151797, 17.382819048512072 ], [ 78.451851993735232, 17.387767975141738 ], [ 78.447588086298069, 17.390170648412102 ], [ 78.443224381328804, 17.387624489448857 ], [ 78.443124463622709, 17.382675780522877 ], [ 78.447388100014152, 17.380273012852726 ], [ 78.451751925151797, 17.382819048512072 ] ] ] } },
{ "type": "Feature", "properties": { "h3": "8860a258c3fffff", "pop_total": 0.0, "pm25": null, "lst_c": null, "d_road_m": 0.34382301623472078, "d_hosp_m": 1498.5651042338986, "bld_count": 322, "bld_density": 0.0004275939579547196, "n_pop": 0.0, "n_pm": 0.0, "n_heat": 0.0, "n_near_road": 0.99984215984151148, "n_far_hosp": 0.20937263162236827, "n_bld_dense": 0.10203999800931456, "score_hospital": 0.13139011072750639, "score_school": 0.39996053996037784 }, "geometry": { "type": "Polygon", "coordinates": [ [ [ 78.38245787863795, 17.366820757547664 ], [ 78.382556730786618, 17.371768239209832 ], [ 78.378295615880148, 17.374169088994574 ], [ 78.373935920354313, 17.3716225519163 ], [ 78.373837218884759, 17.36667528868313 ], [ 78.378098062267625, 17.364274344095598 ], [ 78.38245787863795, 17.366820757547664 ] ] ] } },
{ "type": "Feature", "properties": { "h3": "8860a25ab9fffff", "pop_total": 0.0, "pm25": null, "lst_c": null, "d_road_m": 0.35342604297927649, "d_hosp_m": 1425.0572510010138, "bld_count": 441, "bld_density": 0.00058544127742460685, "n_pop": 0.0, "n_pm": 0.0, "n_heat": 0.0, "n_near_road": 0.99983773481382543, "n_far_hosp": 0.19910245208008678, "n_bld_dense": 0.13970830427239922, "score_hospital": 0.12984914129339556, "score_school": 0.39995943370345632 }, "geometry": { "type": "Polygon", "coordinates": [ [ [ 78.390485386395497, 17.337277581750445 ], [ 78.390584369110471, 17.34222587804431 ], [ 78.386323374283293, 17.344627968614191 ], [ 78.381963668158633, 17.342081857479659 ], [ 78.381864836114346, 17.337133779610518 ], [ 78.386125559529731, 17.334731594447526 ], [ 78.390485386395497, 17.337277581750445 ] ] ] } }
]
}
